{
"type": "FeatureCollection",
"name": "floresta_ombrofila_densa",
"crs": { "type": "name", "properties": { "name": "urn:ogc:def:crs:OGC:1.3:CRS84" } },
"features": [
{"type":"Feature","properties":{"fid":322,"id1":983061,"cd_fcim":"SG22","leg_carga":"Ag+Vss+Rp.D","cd_fito":"D","cd_leg_2":"Ag","clas_domi":"Ag","leg_uveg":null,"nm_uveg":null,"leg_uantr":"Ag","nm_uantr":"Agropecuária","leg_contat":null,"nm_contat":null,"veg_pretet":"D","nm_pretet":"Floresta Ombrófila Densa","leg_sec1":"Vss","nm_sec1":"Vegetação Secundária sem palmeiras","leg_sec2":"Rp","nm_sec2":"Florestamento/Reflorestamento com Pinus","leg_sup":"Área Antrópica Dominante","legenda_1":"Floresta Ombrófila Densa","legenda_2":"Agropecuária","legenda":"3Ag - Agropecuária","ar_poli_km":987.5606,"leg1_id":1.0,"leg2_id":45.0},"geometry":{"type":"MultiPolygon","coordinates":[[[[-49.5263317,-24.857201799999899],[-49.5263337,-24.8573244],[-49.5262653,-24.8576242],[-49.5260223,-24.8580615],[-49.5259483,-24.8581667],[-49.5257109,-24.8585042],[-49.5254743,-24.8588407],[-49.5254332,-24.8589742999999],[-49.5255,-24.8591815],[-49.5257491,-24.8594466],[-49.525831299999901,-24.8594691],[-49.5259892,-24.8594282],[-49.526083399999898,-24.8594037999999],[-49.526189,-24.8594057],[-49.5262979,-24.859457899999899],[-49.526571499999903,-24.8597053999999],[-49.526950199999902,-24.8598842],[-49.527219499999902,-24.860109],[-49.5273831,-24.8601782],[-49.5278701,-24.8602855],[-49.528200599999899,-24.860587899999899],[-49.5286242,-24.8607526],[-49.5287623,-24.8608669],[-49.5288451,-24.8609982],[-49.528879399999902,-24.8611399],[-49.528878899999903,-24.861295599999899],[-49.5288787,-24.861344],[-49.528710299999901,-24.861509899999898],[-49.5283405,-24.8619644999999],[-49.528245599999899,-24.8620812],[-49.528170799999899,-24.8622905],[-49.5281505,-24.8623473],[-49.5280628,-24.862465],[-49.5279479,-24.8625484999999],[-49.5277389,-24.862595499999902],[-49.5264867,-24.8628768],[-49.5262302,-24.8629953],[-49.5260099,-24.863179499999902],[-49.5258615,-24.863228499999899],[-49.525589099999898,-24.8634455],[-49.5255448999999,-24.8635464],[-49.5254289,-24.8638104999999],[-49.5254115,-24.8638339],[-49.5253013,-24.863981899999899],[-49.5251299,-24.8641314],[-49.5248199,-24.8643073],[-49.524656999999898,-24.8644725999999],[-49.5241746,-24.8651004],[-49.524129899999899,-24.865227999999899],[-49.5241366,-24.8655166],[-49.5240939,-24.8656518999999],[-49.5240395,-24.865770499999901],[-49.523858699999899,-24.865978599999899],[-49.5238261,-24.8660671],[-49.523654,-24.8665334],[-49.523640199999903,-24.866955899999901],[-49.5236341,-24.8671431],[-49.523855599999898,-24.8674844],[-49.523815899999903,-24.8676786999999],[-49.5237374,-24.8677273],[-49.523699899999897,-24.8677504999999],[-49.523405,-24.867783799999899],[-49.523259499999902,-24.8677647],[-49.5232518,-24.8677609],[-49.523067099999899,-24.867669099999901],[-49.5229482,-24.867434499999899],[-49.522886,-24.867380399999899],[-49.5227103,-24.867361],[-49.5224878,-24.8673406999999],[-49.5223538,-24.8673779],[-49.522324399999903,-24.867429399999899],[-49.5223065,-24.8674607],[-49.522297099999903,-24.8676278],[-49.5222946,-24.867672599999899],[-49.5222239,-24.8677868],[-49.521895099999902,-24.867951199999901],[-49.520992299999897,-24.868678499999898],[-49.520408599999897,-24.8693195],[-49.520312299999901,-24.869396499999901],[-49.5201244,-24.869547],[-49.520047599999899,-24.8696083],[-49.519922,-24.8697271],[-49.519671199999898,-24.869964],[-49.5194286,-24.870113499999899],[-49.519304299999902,-24.870190099999899],[-49.519253,-24.8702511],[-49.5190357,-24.8705090999999],[-49.5189682,-24.8705366],[-49.5189093,-24.8705203],[-49.5188224,-24.8704964],[-49.5185921,-24.8704935],[-49.5184513,-24.870539399999899],[-49.5179315,-24.8708106],[-49.5177992,-24.8709741],[-49.5177246,-24.8712328],[-49.5176159,-24.8714153],[-49.517598399999898,-24.8714269],[-49.517243699999902,-24.8716598],[-49.516984599999901,-24.8719055],[-49.5168518,-24.8719725999999],[-49.5163469,-24.872004699999898],[-49.5160334,-24.8719798999999],[-49.5156352,-24.8718062],[-49.5152345,-24.871712199999902],[-49.515001799999901,-24.871713199999899],[-49.514805599999903,-24.871752699999899],[-49.5144692,-24.871922599999898],[-49.5141968,-24.872110099999901],[-49.513958699999897,-24.8721702],[-49.513765799999902,-24.8722936],[-49.5137463,-24.8724576],[-49.5138416,-24.8727924999999],[-49.513768399999897,-24.8729408],[-49.513646999999899,-24.8730651999999],[-49.5134732,-24.873243199999902],[-49.513321,-24.8733152],[-49.513157799999902,-24.8733541],[-49.5131446,-24.8733573],[-49.512763,-24.8734481],[-49.5124101,-24.873562499999899],[-49.512160499999901,-24.8736435],[-49.5118676,-24.8738635],[-49.5117724,-24.874006399999899],[-49.5115625,-24.874125799999899],[-49.5113817,-24.8743233],[-49.5110531,-24.874573199999901],[-49.5110233,-24.874596],[-49.511012299999898,-24.874596999999898],[-49.510875199999901,-24.8746098],[-49.5106751,-24.874678399999901],[-49.5104861,-24.874607399999899],[-49.510415,-24.8746097],[-49.5101763,-24.8747058],[-49.510098,-24.874846299999898],[-49.510077599999903,-24.874933499999901],[-49.5100419,-24.8750871],[-49.5099374,-24.875233799999901],[-49.509974,-24.8754906],[-49.510019999999898,-24.875544999999899],[-49.5100729,-24.8756076],[-49.510096,-24.8756814],[-49.5100376,-24.8759383],[-49.509912299999897,-24.876082999999898],[-49.509739599999897,-24.8761673999999],[-49.5095342,-24.876136599999899],[-49.509316899999902,-24.8761038],[-49.5092091,-24.876140099999901],[-49.509078,-24.876245],[-49.5090734999999,-24.8763235],[-49.5091471,-24.876455],[-49.509132,-24.8766069],[-49.5090344,-24.8767253],[-49.508756199999901,-24.876942],[-49.5087119,-24.877087],[-49.5087291,-24.8771169],[-49.5087548,-24.8771619],[-49.5089052,-24.8772059],[-49.509216299999899,-24.8772213999999],[-49.5096909,-24.8772961],[-49.5099026,-24.877377],[-49.5100083,-24.8774829],[-49.5100045,-24.8776404],[-49.5097504,-24.878014699999898],[-49.5096535,-24.8782626],[-49.5096538,-24.8783286],[-49.5096973,-24.8784039],[-49.5101892,-24.8787745],[-49.5102284,-24.8789224],[-49.5101981,-24.879344],[-49.510116799999899,-24.879476],[-49.5100436,-24.879511599999901],[-49.510027799999897,-24.8795193],[-49.509914,-24.8795277],[-49.5098115,-24.879497699999899],[-49.5096066999999,-24.8794377],[-49.5094584,-24.879424599999901],[-49.5093575,-24.879459699999899],[-49.5093087,-24.8795104],[-49.509314399999901,-24.8795868],[-49.5095697,-24.8799465],[-49.5097704,-24.8802292],[-49.5103778,-24.8811625],[-49.510530199999899,-24.8814449],[-49.5105894,-24.881604799999899],[-49.5106021,-24.881837399999899],[-49.5105339,-24.882006999999899],[-49.5103975,-24.8821985],[-49.5103399,-24.8822484999999],[-49.510007599999902,-24.882395899999899],[-49.5099691,-24.882413],[-49.509693399999897,-24.8827615],[-49.509126799999898,-24.8831999],[-49.5089457,-24.8835783],[-49.5084854999999,-24.8841588999999],[-49.508464199999899,-24.8843244],[-49.508493799999897,-24.8843906],[-49.5086148,-24.8844965],[-49.508666499999897,-24.884526299999902],[-49.5088228,-24.8846164999999],[-49.508918799999897,-24.8847395],[-49.508933399999897,-24.884865499999901],[-49.5089442,-24.8849587999999],[-49.5089584,-24.8850818],[-49.5090347,-24.8852277],[-49.5090881,-24.885272299999901],[-49.5091575,-24.8852912],[-49.5093362,-24.8853399],[-49.509759599999903,-24.8856878],[-49.5098312,-24.8858094],[-49.5098053,-24.8858582],[-49.5097986,-24.885870699999899],[-49.5095016,-24.886046399999898],[-49.5094452,-24.8860797],[-49.5092625999999,-24.886252399999901],[-49.509234799999902,-24.8863446],[-49.5093398,-24.887130399999901],[-49.509332399999899,-24.887300099999901],[-49.5092955,-24.8873804999999],[-49.5091676,-24.8874622],[-49.5088994,-24.8874372],[-49.5086628,-24.887437299999899],[-49.5084692,-24.8874877],[-49.5083451,-24.887582899999899],[-49.508315799999899,-24.8876610999999],[-49.5083301,-24.887804699999901],[-49.5084277,-24.887999099999899],[-49.5085075,-24.8883663],[-49.508517,-24.8886734],[-49.5084672999999,-24.8888074],[-49.5084573,-24.8888344],[-49.508440699999902,-24.8888446999999],[-49.508296,-24.8889335],[-49.5080139,-24.8890048],[-49.507558,-24.8892006],[-49.5073949,-24.889270699999901],[-49.5073363,-24.889309099999899],[-49.507224,-24.889504499999902],[-49.507168299999897,-24.8895462999999],[-49.507085199999899,-24.889568],[-49.5068385,-24.8895464],[-49.506649799999899,-24.8896806],[-49.506494099999898,-24.8897296],[-49.5063453,-24.8897205],[-49.5059424,-24.889622],[-49.505699299999897,-24.889627699999899],[-49.5055138,-24.88978],[-49.5054537,-24.8898718999999],[-49.505373899999903,-24.8901274],[-49.5053394,-24.8901772],[-49.5051675,-24.8904254],[-49.5049207,-24.8906522999999],[-49.5047431,-24.8906957999999],[-49.504535599999897,-24.8907467],[-49.504333,-24.8908724],[-49.5038281,-24.8914126],[-49.5036569,-24.8917595],[-49.503637899999902,-24.8917979],[-49.5036214,-24.8918148],[-49.503430299999899,-24.892010099999901],[-49.5032613,-24.8922699],[-49.5032585,-24.892346799999899],[-49.5032572,-24.892381999999898],[-49.5032492,-24.8926025],[-49.5031485,-24.892819],[-49.5030553,-24.8928873999999],[-49.5028877,-24.892957399999901],[-49.5027549,-24.893013],[-49.5026614,-24.893052],[-49.502389999999899,-24.893165399999901],[-49.502135199999898,-24.8931479],[-49.5020471999999,-24.8931722999999],[-49.5018378,-24.8934174],[-49.501456,-24.8936287],[-49.5012852,-24.8936735],[-49.500934,-24.8936902],[-49.500771,-24.8937319],[-49.5005106,-24.893958999999899],[-49.5004261,-24.8940942],[-49.500422899999897,-24.894099099999899],[-49.5001568,-24.8945477],[-49.5001164,-24.8947431],[-49.500085,-24.8948950999999],[-49.500071499999898,-24.8949602],[-49.5000752,-24.895046599999901],[-49.5001435,-24.8951968],[-49.5002656,-24.8952831],[-49.5003028,-24.895292099999899],[-49.5003502,-24.8953036],[-49.5004261,-24.895321099999901],[-49.500495999999899,-24.8953142],[-49.500638599999903,-24.895263499999899],[-49.5008258,-24.8949898],[-49.5010315,-24.894857499999901],[-49.5011847,-24.8948131],[-49.501285,-24.8948136],[-49.5014518999999,-24.895001599999901],[-49.501521899999901,-24.895034899999899],[-49.501696099999897,-24.895032399999899],[-49.5018678,-24.8951094],[-49.501973399999898,-24.8952111],[-49.5021848,-24.8956155],[-49.5021948999999,-24.8958335999999],[-49.502089,-24.8960281999999],[-49.5020572,-24.896076999999899],[-49.501965599999899,-24.896217299999901],[-49.501924,-24.8966073],[-49.5019694,-24.8968889],[-49.502071999999899,-24.8970849],[-49.5021477,-24.8972297],[-49.5021355,-24.8973659],[-49.502078,-24.8974926],[-49.502033299999901,-24.8975909],[-49.501981,-24.897862],[-49.5019705,-24.8979163999999],[-49.501999199999901,-24.8981161],[-49.5020799,-24.8982629],[-49.502089399999903,-24.898271],[-49.502280299999903,-24.898435699999901],[-49.5024447,-24.8985059],[-49.5029699,-24.898504699999901],[-49.5038489,-24.898502699999899],[-49.5041105,-24.898597799999902],[-49.504148299999898,-24.898659],[-49.504179099999902,-24.898709],[-49.5041712,-24.8987863],[-49.5040256999999,-24.898989399999898],[-49.5040245,-24.899075799999899],[-49.5040225,-24.899221899999901],[-49.5039054,-24.8996172],[-49.5037053,-24.8999497],[-49.5035166,-24.9001539],[-49.5033371,-24.900286499999901],[-49.5030702,-24.9004073],[-49.502355899999898,-24.900554199999899],[-49.501946599999897,-24.9006792],[-49.5016396,-24.900853],[-49.501617699999898,-24.900925],[-49.501636399999903,-24.900997899999901],[-49.5016752,-24.901153399999899],[-49.5015711,-24.901349],[-49.5012809,-24.9015499],[-49.501177599999899,-24.9016554],[-49.501114099999903,-24.9017201],[-49.5007937,-24.901898699999901],[-49.5004261,-24.9021721999999],[-49.500423199999901,-24.9021743],[-49.500222199999897,-24.9023238],[-49.500013399999901,-24.902400199999899],[-49.4997852,-24.902529],[-49.4995054,-24.902804699999901],[-49.499350799999903,-24.903019599999901],[-49.4991563,-24.9033704],[-49.498957399999902,-24.9039506999999],[-49.4988375,-24.904164],[-49.4986656,-24.9043644999999],[-49.498594,-24.9044463],[-49.4990352,-24.9048329],[-49.4987766,-24.9052804],[-49.5004403,-24.9054196],[-49.502736399999897,-24.9037724],[-49.505480599999899,-24.9032017],[-49.505969999999898,-24.9029497],[-49.507396099999902,-24.9016682],[-49.5085488,-24.901094699999899],[-49.509551799999898,-24.9009933],[-49.509933499999903,-24.901335399999901],[-49.5097188,-24.9025038],[-49.5091145,-24.9035198999999],[-49.509048,-24.904072],[-49.509916599999897,-24.9051883],[-49.511515099999897,-24.9067463],[-49.5121271,-24.9080034999999],[-49.5121161,-24.908936599999901],[-49.510962999999897,-24.9106363],[-49.510804,-24.9112802],[-49.5111019,-24.9122406],[-49.5117175,-24.9124717],[-49.5130483,-24.912289999999899],[-49.513728399999898,-24.9124085999999],[-49.515340799999898,-24.913312],[-49.5160538,-24.9131505],[-49.5182401,-24.9117178],[-49.5202982,-24.9112226999999],[-49.521634499999898,-24.9112438],[-49.5237739,-24.910117699999901],[-49.5249588,-24.9088467999999],[-49.525996,-24.908319199999902],[-49.5273829,-24.9083092999999],[-49.528879,-24.9086783999999],[-49.529367599999901,-24.909134499999901],[-49.5294446,-24.9096081],[-49.529228499999903,-24.910408899999901],[-49.529252799999902,-24.911023199999899],[-49.5297097,-24.9115648],[-49.5302311,-24.911908299999901],[-49.5309715,-24.912084499999899],[-49.5320164,-24.911398599999899],[-49.5327275,-24.9114271],[-49.5334568,-24.9124057],[-49.5349269,-24.9136056],[-49.5378744,-24.9156388],[-49.5394542,-24.9165158],[-49.5393579,-24.916797599999899],[-49.538361,-24.9176626],[-49.538099799999898,-24.918618799999901],[-49.5382475,-24.9194098],[-49.539808799999903,-24.9206394],[-49.5401858,-24.9213632999999],[-49.540601299999899,-24.922946099999901],[-49.5405565,-24.9244909],[-49.5413856,-24.9260293],[-49.542875299999899,-24.9280919],[-49.544488199999897,-24.9294312],[-49.5451095,-24.929947899999899],[-49.5451929,-24.9307684999999],[-49.544966299999899,-24.931640199999901],[-49.545156,-24.932672099999898],[-49.5469466,-24.935597899999902],[-49.5477217,-24.9360282],[-49.5492848,-24.9365784999999],[-49.549784799999898,-24.9373313],[-49.5491296,-24.937974],[-49.5485593,-24.9381309],[-49.5481349,-24.9384453],[-49.5480908,-24.939256699999898],[-49.5487618,-24.9405406999999],[-49.5494032,-24.9409977],[-49.550113199999899,-24.9410874],[-49.552061799999898,-24.940039899999899],[-49.5532717,-24.9402534],[-49.5553462,-24.9409936],[-49.560043199999903,-24.9409279],[-49.5618418,-24.940609299999899],[-49.5625888,-24.9401377],[-49.5629676,-24.9395191999999],[-49.5636357,-24.9392867],[-49.5643754,-24.939489799999901],[-49.5646037,-24.9403606999999],[-49.5651846,-24.940929299999901],[-49.5661028,-24.941348499999901],[-49.5673242,-24.9412675999999],[-49.5683916,-24.9398983],[-49.5682752,-24.9388632],[-49.568373699999903,-24.938574199999898],[-49.5687857,-24.9383008],[-49.569355,-24.9381708],[-49.5712191,-24.9386216],[-49.572886599999897,-24.9398289],[-49.5731233,-24.941133299999901],[-49.571635699999902,-24.9429759],[-49.571566,-24.943567599999898],[-49.5718696,-24.9440506],[-49.572302299999897,-24.9442238],[-49.5752295,-24.9437591],[-49.5759375,-24.9439909],[-49.5768866,-24.944958799999899],[-49.5776718,-24.946603],[-49.5782012,-24.9472584],[-49.5798955,-24.9482204],[-49.580074399999901,-24.948814],[-49.5786788999999,-24.951821799999902],[-49.5787859,-24.9532323],[-49.5785061999999,-24.9546548],[-49.57585,-24.957199],[-49.5749972999999,-24.9585441],[-49.5748781,-24.959411],[-49.575004299999897,-24.959616599999901],[-49.5763358,-24.961785099999901],[-49.5767625,-24.9637574999999],[-49.5771184,-24.9640563],[-49.5783781,-24.9644622],[-49.579270699999903,-24.9651292],[-49.5797039,-24.965234899999899],[-49.5810018,-24.965016499999901],[-49.5817256,-24.9650865999999],[-49.583963599999898,-24.966672899999899],[-49.5847826,-24.9676008],[-49.586399,-24.9683406],[-49.5884947,-24.9706398],[-49.589465399999902,-24.972369699999899],[-49.591764399999903,-24.9751145],[-49.591745699999898,-24.9757501],[-49.5920265,-24.976377399999901],[-49.5934685,-24.976648],[-49.5937405,-24.9765523999999],[-49.595014999999897,-24.9754349],[-49.595340399999898,-24.9753706],[-49.595771899999903,-24.9756068],[-49.5960114,-24.9759491],[-49.5976676,-24.9783262],[-49.598070699999901,-24.9813052],[-49.5983146,-24.9821656999999],[-49.5991941,-24.9839009],[-49.599934,-24.9850508],[-49.602138599999897,-24.9869783],[-49.6026792,-24.987102299999901],[-49.6036571,-24.986776099999901],[-49.6038953,-24.9866410999999],[-49.6038581,-24.9866071],[-49.6036205999999,-24.9865315],[-49.6037302,-24.986482899999899],[-49.6038315,-24.986426499999901],[-49.6040121999999,-24.986360299999902],[-49.6043533,-24.9862105],[-49.6046428,-24.9860648],[-49.6050003,-24.985906499999899],[-49.6050992,-24.985862699999899],[-49.6052126,-24.9858022],[-49.6052925,-24.985714],[-49.6053575,-24.9856152999999],[-49.6054078,-24.985482299999902],[-49.605446899999897,-24.9853492],[-49.6054523,-24.9851987],[-49.6054458,-24.985106299999899],[-49.6054095,-24.984996399999901],[-49.6053582,-24.984883],[-49.605272699999901,-24.9848001],[-49.6051911,-24.9847138],[-49.605138699999898,-24.9846277],[-49.6051275,-24.98459],[-49.6050987,-24.9844931],[-49.6050882,-24.9844138],[-49.6051232,-24.984324699999899],[-49.605199599999899,-24.984253099999901],[-49.6053405,-24.984158],[-49.6054169,-24.984119099999901],[-49.6055989,-24.9840262],[-49.6058988999999,-24.983891399999901],[-49.6062138,-24.9837772999999],[-49.606619,-24.983648],[-49.606807699999898,-24.9836055],[-49.6070205,-24.983574299999901],[-49.6071969,-24.983548299999899],[-49.6074561,-24.9834928],[-49.6077518,-24.9833378],[-49.6077756,-24.9833239],[-49.607910699999898,-24.9832453],[-49.6080335,-24.983124799999899],[-49.6080954,-24.9830147],[-49.6081333,-24.982882399999902],[-49.608134699999901,-24.9827607],[-49.608081399999897,-24.9826385],[-49.6080157,-24.9825438999999],[-49.6078957,-24.9824211],[-49.607630899999897,-24.982208399999902],[-49.6072865,-24.981956599999901],[-49.6070278,-24.981773599999901],[-49.6068102999999,-24.9816096],[-49.6065532,-24.981409799999899],[-49.606372,-24.9812047],[-49.606243699999901,-24.9810156],[-49.606168399999902,-24.9808606],[-49.606118299999899,-24.9806753],[-49.6061112,-24.9805352],[-49.6061376,-24.9804194],[-49.606189,-24.9803168],[-49.6062479,-24.9802354],[-49.606370599999899,-24.9801494],[-49.6065766,-24.9800404],[-49.6067388,-24.9799292],[-49.606957899999898,-24.9797621],[-49.6070716,-24.979653],[-49.607179599999903,-24.9795493999999],[-49.607279199999901,-24.9794281],[-49.6073431,-24.979276599999899],[-49.607393699999903,-24.979145899999899],[-49.6074606,-24.9790153],[-49.6076035,-24.9788341],[-49.6077144,-24.978703799999899],[-49.607799199999903,-24.9786364],[-49.6079166,-24.978577599999898],[-49.6080319,-24.978548799999899],[-49.608152699999899,-24.9785232999999],[-49.6082549,-24.9785072],[-49.608407499999899,-24.9784979],[-49.6085307,-24.9784991],[-49.608711399999898,-24.9785214999999],[-49.6088477,-24.978561399999901],[-49.6089742,-24.978627],[-49.609147199999903,-24.978744499999902],[-49.6093106,-24.9788877],[-49.6093987,-24.979013],[-49.609501099999903,-24.9791213],[-49.609623199999902,-24.979161099999899],[-49.609741,-24.9791622],[-49.6098206,-24.979162899999899],[-49.6098353,-24.979163099999901],[-49.609920299999899,-24.979146699999902],[-49.6099819,-24.9791215],[-49.610072199999898,-24.9790537],[-49.6101654,-24.978930799999901],[-49.610182199999898,-24.9789087],[-49.610292899999898,-24.9787037],[-49.610388,-24.9784597999999],[-49.6104268,-24.9783274],[-49.6104837,-24.978259799999901],[-49.610588999999898,-24.978206199999899],[-49.610708799999898,-24.978190299999898],[-49.6108507,-24.9782087],[-49.610999999999898,-24.978237299999901],[-49.611130499999902,-24.9782691999999],[-49.6114173,-24.9783707],[-49.611595,-24.9784217],[-49.6117553999999,-24.9784847],[-49.611975899999898,-24.978563399999899],[-49.6122212,-24.9786432],[-49.612369199999897,-24.978671599999899],[-49.6125383,-24.9786786],[-49.6127721,-24.9786847999999],[-49.613037899999902,-24.9786753],[-49.6132597,-24.978648399999901],[-49.613481299999897,-24.9786321],[-49.6135958,-24.9786058],[-49.6137262,-24.9785764],[-49.613852699999903,-24.9785211],[-49.613974,-24.978511099999899],[-49.614139099999903,-24.978512599999899],[-49.6143412,-24.9785145],[-49.614543,-24.9785332],[-49.614766099999898,-24.978581599999899],[-49.6149247,-24.978641799999899],[-49.6150865,-24.978720399999901],[-49.615291,-24.9788636],[-49.6154061,-24.978939],[-49.615525299999902,-24.979038],[-49.6156364,-24.9790899],[-49.6157178999999,-24.9791063],[-49.6157823,-24.9791069],[-49.6158381,-24.9791074],[-49.6159243,-24.9790887],[-49.6160105,-24.9790621],[-49.6161312,-24.979024099999901],[-49.616273099999901,-24.9790136],[-49.6163976,-24.9790226],[-49.616568599999901,-24.979056699999902],[-49.6167421,-24.9791228],[-49.616920999999898,-24.9791989],[-49.6170564,-24.9792696],[-49.6171373,-24.979339799999899],[-49.6172281999999,-24.9794845],[-49.6173441,-24.9797323],[-49.617377299999902,-24.979858599999901],[-49.617384699999903,-24.979972799999899],[-49.617407399999898,-24.980330799999901],[-49.6173846,-24.9808945],[-49.6173906,-24.9812979],[-49.6173909,-24.9813187],[-49.6173927,-24.981489199999899],[-49.617404899999897,-24.9816857],[-49.6174245,-24.981797399999898],[-49.6175163,-24.9820766],[-49.6175756,-24.9822078],[-49.6176401,-24.982275699999899],[-49.6177347,-24.9823637],[-49.6178336,-24.9824596],[-49.617931999999897,-24.9826037999999],[-49.617992199999897,-24.982719099999901],[-49.6180615,-24.982837199999899],[-49.618111499999898,-24.9828861999999],[-49.6181192,-24.9828937],[-49.618207799999901,-24.982939299999899],[-49.618308699999901,-24.9829794],[-49.618394099999897,-24.983039],[-49.618448699999902,-24.983101099999899],[-49.618503,-24.9831910999999],[-49.618532699999903,-24.9832780999999],[-49.6185639,-24.9835191999999],[-49.6185718999999,-24.983690099999901],[-49.6185874,-24.9837415],[-49.6186099,-24.9838164],[-49.6186408,-24.983861999999899],[-49.6186925,-24.9839385],[-49.618769799999903,-24.9840876],[-49.6188026,-24.984245299999898],[-49.6187894,-24.9844494],[-49.6187421,-24.9847677],[-49.618731899999901,-24.9848360999999],[-49.6187246,-24.984935699999902],[-49.6187424,-24.985018399999898],[-49.618803899999897,-24.985110099999901],[-49.618921999999898,-24.985225699999901],[-49.619141899999903,-24.985401],[-49.619263799999899,-24.985492399999899],[-49.6193891,-24.985547999999898],[-49.619421499999902,-24.9855623999999],[-49.619590699999897,-24.9856187],[-49.619685499999903,-24.985664499999899],[-49.619759,-24.9857198999999],[-49.619862699999899,-24.985827599999901],[-49.6199753,-24.9859468],[-49.6200833,-24.9860669],[-49.620139,-24.9861414],[-49.620162999999899,-24.9862059],[-49.620219899999903,-24.9864248],[-49.6202471,-24.986499],[-49.620324,-24.9866375],[-49.6204504,-24.986799399999899],[-49.620535,-24.986874999999898],[-49.6207016,-24.9869601],[-49.6208649,-24.9870596],[-49.6209588,-24.987152599999899],[-49.621005399999902,-24.987227899999901],[-49.6210574999999,-24.987385399999901],[-49.6210887,-24.9874404],[-49.6211018,-24.987463499999901],[-49.6211585,-24.987537099999901],[-49.6212424,-24.987600299999901],[-49.6214667,-24.987731],[-49.6216621,-24.9877989],[-49.6218337,-24.987858699999901],[-49.6221179,-24.9879321],[-49.6223509,-24.987952],[-49.622475999999899,-24.987953699999899],[-49.6225479,-24.9879546999999],[-49.622753,-24.9879144],[-49.6229147,-24.9879395],[-49.623063,-24.9879999],[-49.6231981,-24.9880896],[-49.6233389,-24.9882443999999],[-49.6233892,-24.988380499999899],[-49.6234039,-24.9885381],[-49.623411099999899,-24.9886152999999],[-49.6234123,-24.9886286],[-49.6233898,-24.9889057],[-49.623309699999901,-24.989148],[-49.6232133,-24.9894626],[-49.6231428,-24.989701099999898],[-49.6231185,-24.9898178],[-49.6231116,-24.989851299999899],[-49.6231068,-24.990017899999899],[-49.6231289,-24.9901498],[-49.623182799999903,-24.990313],[-49.6232603,-24.990496999999898],[-49.6233523,-24.9906670999999],[-49.623443,-24.9907896],[-49.623504099999899,-24.9908588],[-49.6236451,-24.9910184999999],[-49.623795,-24.9911496],[-49.6239535,-24.9912661],[-49.6241185,-24.9913794],[-49.6242664,-24.9914942],[-49.6244793,-24.991626499999899],[-49.624592,-24.991692699999899],[-49.6247407,-24.9917431],[-49.624919299999902,-24.9917828],[-49.6249774999999,-24.9917907],[-49.6252332,-24.9918254],[-49.6256185,-24.9918738],[-49.6260645,-24.991912399999901],[-49.6265036,-24.991980199999901],[-49.6267975,-24.9920048],[-49.6270494,-24.992026199999898],[-49.6272445,-24.992033499999899],[-49.6273037,-24.992038],[-49.6273859,-24.9920443],[-49.627502299999897,-24.9920792],[-49.6275864999999,-24.9921355],[-49.627687099999903,-24.992226],[-49.6277843,-24.9923287999999],[-49.6278512,-24.9924126999999],[-49.6279203,-24.9926133],[-49.6279863,-24.9928684],[-49.6280692999999,-24.9932365999999],[-49.6282484,-24.9938405],[-49.628303075329107,-24.994066152703017],[-49.628639716999899,-24.993723143999897],[-49.628381047999895,-24.987766123],[-49.625817004999895,-24.983574088999898],[-49.623266547,-24.975894162],[-49.617355695,-24.969756517999901],[-49.607761282999896,-24.9633021389999],[-49.605922195999902,-24.952864578999897],[-49.602389119999899,-24.947917575],[-49.599292026999898,-24.947440446],[-49.596178615,-24.9484517839999],[-49.594517477999894,-24.95081799],[-49.594459932999904,-24.955729817999899],[-49.591972673,-24.958981254],[-49.589842163999897,-24.959555162],[-49.584651133,-24.9566756],[-49.582386755999899,-24.943646956999899],[-49.577259350999896,-24.937906927],[-49.574211237,-24.932189390999898],[-49.571027763,-24.9217066359999],[-49.573506201,-24.919200479],[-49.584303693,-24.917222944999899],[-49.586965936999903,-24.912932461],[-49.584094072,-24.907396160999898],[-49.572706856,-24.904157472999898],[-49.569301148,-24.902337674],[-49.563336864999897,-24.8961753459999],[-49.555207181999897,-24.893711579],[-49.552633403,-24.890558858],[-49.548093223999892,-24.874733905],[-49.541825236,-24.866928507999898],[-49.534400543999901,-24.860303153],[-49.528531377,-24.859945705],[-49.527077373999902,-24.8587396839999],[-49.526329427879837,-24.85704882603525],[-49.5263317,-24.857201799999899]]]]}}
]
}
